NORAD_CAT_ID,OBJECT_NAME,OBJECT_TYPE,EPOCH,MEAN_MOTION,ECCENTRICITY,INCLINATION,RA_OF_ASC_NODE,ARG_OF_PERICENTER,MEAN_ANOMALY,BSTAR,MEAN_MOTION_DOT,MEAN_MOTION_DDOT,TLE_LINE0,TLE_LINE1,TLE_LINE2,SEMIMAJOR_AXIS,PERIOD,APOGEE,PERIGEE,DECAYED
53149.0,STARLINK-4021,PAYLOAD,2023-11-15 12:01:34,15.08834227,0.000188,53.2184,358.523,92.8066,267.3142,0.00023683,3.482e-05,0.0,0 STARLINK-4021,1 53149U 22083T   23319.50109764  .00003482  00000-0  23683-3 0  9999,2 53149  53.2184 358.5230 0001880  92.8066 267.3142 15.08834227 73769,6917.898,95.438,541.064,538.462,0.0
53149.0,STARLINK-4021,PAYLOAD,2023-11-15 19:58:30,15.08838786,0.0001638,53.2174,357.0374,88.9573,271.1607,-3.6027e-05,-8.61e-06,0.0,0 STARLINK-4021,1 53149U 22083T   23319.83229491 -.00000861  00000-0 -36027-4 0  9992,2 53149  53.2174 357.0374 0001638  88.9573 271.1607 15.08838786 73810,6917.884,95.438,540.882,538.616,0.0
53149.0,STARLINK-4021,PAYLOAD,2023-11-16 08:41:35,15.08837464,0.0001691,53.2181,354.6593,101.6665,258.4517,0.00012306,1.671e-05,0.0,0 STARLINK-4021,1 53149U 22083T   23320.36221816  .00001671  00000-0  12306-3 0  9996,2 53149  53.2181 354.6593 0001691 101.6665 258.4517 15.08837464 73896,6917.888,95.438,540.923,538.583,0.0
53149.0,STARLINK-4021,PAYLOAD,2023-11-16 19:49:17,15.08837718,0.000172,53.2185,352.578,86.9227,273.1962,6.1927e-05,6.98e-06,0.0,0 STARLINK-4021,1 53149U 22083T   23320.82590040  .00000698  00000-0  61927-4 0  9997,2 53149  53.2185 352.5780 0001720  86.9227 273.1962 15.08837718 73965,6917.887,95.438,540.942,538.562,0.0
53149.0,STARLINK-4021,PAYLOAD,2023-11-17 02:10:50,15.08837138,0.0001637,53.2175,351.3881,88.5542,271.5637,0.00011322,1.514e-05,0.0,0 STARLINK-4021,1 53149U 22083T   23321.09085983  .00001514  00000-0  11322-3 0  9993,2 53149  53.2175 351.3881 0001637  88.5542 271.5637 15.08837138 74630,6917.889,95.438,540.887,538.622,0.0
53149.0,STARLINK-4021,PAYLOAD,2023-11-17 08:32:22,15.08840894,0.0001572,53.2176,350.1985,88.5727,271.5445,6.5081e-05,7.48e-06,0.0,0 STARLINK-4021,1 53149U 22083T   23321.35581939  .00000748  00000-0  65081-4 0  9994,2 53149  53.2176 350.1985 0001572  88.5727 271.5445 15.08840894 74041,6917.878,95.437,540.83,538.655,0.0
53149.0,STARLINK-4021,PAYLOAD,2023-11-17 19:40:04,15.08835069,0.0001599,53.2174,348.1165,92.6946,267.4229,0.00016214,2.293e-05,0.0,0 STARLINK-4021,1 53149U 22083T   23321.81950147  .00002293  00000-0  16214-3 0  9996,2 53149  53.2174 348.1165 0001599  92.6946 267.4229 15.08835069 74114,6917.895,95.438,540.867,538.654,0.0
53149.0,STARLINK-4021,PAYLOAD,2023-11-18 11:33:55,15.08845411,0.0001588,53.2175,345.1426,89.8792,270.2382,0.00010689,1.414e-05,0.0,0 STARLINK-4021,1 53149U 22083T   23322.48189551  .00001414  00000-0  10689-3 0  9997,2 53149  53.2175 345.1426 0001588  89.8792 270.2382 15.08845411 74841,6917.864,95.437,540.827,538.63,0.0
53149.0,STARLINK-4021,PAYLOAD,2023-11-19 01:52:24,15.0883637,0.0001617,53.2173,342.4653,91.9261,268.1917,4.9064e-05,4.93e-06,0.0,0 STARLINK-4021,1 53149U 22083T   23323.07806212  .00000493  00000-0  49064-4 0  9999,2 53149  53.2173 342.4653 0001617  91.9261 268.1917 15.08836370 74933,6917.891,95.438,540.875,538.638,0.0
53149.0,STARLINK-4021,PAYLOAD,2023-11-19 08:13:56,15.08841544,0.0001566,53.2174,341.2766,90.2858,269.8313,9.1215e-05,1.164e-05,0.0,0 STARLINK-4021,1 53149U 22083T   23323.34301871  .00001164  00000-0  91215-4 0  9991,2 53149  53.2174 341.2766 0001566  90.2858 269.8313 15.08841544 74345,6917.876,95.437,540.824,538.657,0.0
53149.0,STARLINK-4021,PAYLOAD,2023-11-19 17:46:15,15.08840434,0.0001552,53.2173,339.4918,88.8338,271.2832,4.0813e-05,3.62e-06,0.0,0 STARLINK-4021,1 53149U 22083T   23323.74046023  .00000362  00000-0  40813-4 0  9997,2 53149  53.2173 339.4918 0001552  88.8338 271.2832 15.08840434 74400,6917.879,95.438,540.818,538.67,0.0
53149.0,STARLINK-4021,PAYLOAD,2023-11-20 08:04:43,15.08847332,0.000148,53.2172,336.8182,90.7652,269.351,7.2366e-05,8.64e-06,0.0,0 STARLINK-4021,1 53149U 22083T   23324.33661550  .00000864  00000-0  72366-4 0  9996,2 53149  53.2172 336.8182 0001480  90.7652 269.3510 15.08847332 75129,6917.858,95.437,540.747,538.699,0.0
53149.0,STARLINK-4021,PAYLOAD,2023-11-21 01:33:58,15.08838082,0.0001423,53.217,333.5447,93.9133,266.2022,3.2599e-05,2.31e-06,0.0,0 STARLINK-4021,1 53149U 22083T   23325.06526182  .00000231  00000-0  32599-4 0  9990,2 53149  53.2170 333.5447 0001423  93.9133 266.2022 15.08838082 75239,6917.886,95.438,540.736,538.767,0.0
53149.0,STARLINK-4021,PAYLOAD,2023-11-21 07:55:31,15.08839667,0.0001421,53.217,332.3568,92.5421,267.5733,4.9693e-05,5.03e-06,0.0,0 STARLINK-4021,1 53149U 22083T   23325.33022109  .00000503  00000-0  49693-4 0  9995,2 53149  53.2170 332.3568 0001421  92.5421 267.5733 15.08839667 74640,6917.881,95.438,540.729,538.763,0.0
53149.0,STARLINK-4021,PAYLOAD,2023-11-22 09:21:40,15.08852375,0.0001474,53.217,327.5999,93.9984,266.1177,0.00013545,1.869e-05,0.0,0 STARLINK-4021,1 53149U 22083T   23326.39005168  .00001869  00000-0  13545-3 0  9990,2 53149  53.2170 327.5999 0001474  93.9984 266.1177 15.08852375 75437,6917.843,95.437,540.727,538.688,0.0
53149.0,STARLINK-4021,PAYLOAD,2023-11-23 09:12:27,15.08849281,0.0001701,53.2178,323.1321,84.1427,275.9759,0.00022217,3.25e-05,0.0,0 STARLINK-4021,1 53149U 22083T   23327.38365289  .00003250  00000-0  22217-3 0  9995,2 53149  53.2178 323.1321 0001701  84.1427 275.9759 15.08849281 75585,6917.852,95.437,540.894,538.54,0.0
53149.0,STARLINK-4021,PAYLOAD,2023-11-23 23:30:56,15.08830753,0.0001735,53.2155,320.4608,94.9241,265.195,-0.00012547,-2.284e-05,0.0,0 STARLINK-4021,1 53149U 22083T   23327.97982499 -.00002284  00000-0 -12547-3 0  9991,2 53149  53.2155 320.4608 0001735  94.9241 265.1950 15.08830753 75676,6917.909,95.438,540.974,538.573,0.0
53149.0,STARLINK-4021,PAYLOAD,2023-11-24 09:03:15,15.08835613,0.0001678,53.2155,318.675,111.6501,248.467,8.1377e-06,-1.59e-06,0.0,0 STARLINK-4021,1 53149U 22083T   23328.37726663 -.00000159  00000-0  81377-5 0  9992,2 53149  53.2155 318.6750 0001678 111.6501 248.4670 15.08835613 75106,6917.894,95.438,540.92,538.598,0.0
53149.0,STARLINK-4021,PAYLOAD,2023-11-25 04:07:53,15.08842953,0.0001635,53.216,315.1074,96.8891,263.2287,0.00028314,4.221e-05,0.0,0 STARLINK-4021,1 53149U 22083T   23329.17214829  .00004221  00000-0  28314-3 0  9990,2 53149  53.2160 315.1074 0001635  96.8891 263.2287 15.08842953 75858,6917.871,95.437,540.867,538.605,0.0
53149.0,STARLINK-4021,PAYLOAD,2023-11-26 05:34:03,15.08861862,0.0001806,53.2171,310.3489,88.6622,271.4577,0.00068751,0.00010677,0.0,0 STARLINK-4021,1 53149U 22083T   23330.23198306  .00010677  00000-0  68751-3 0  9991,2 53149  53.2171 310.3489 0001806  88.6622 271.4577 15.08861862 76010,6917.814,95.436,540.928,538.429,0.0
53149.0,STARLINK-4021,PAYLOAD,2023-11-27 03:49:28,15.08814439,0.0001619,53.217,306.1885,90.9099,269.2079,-0.00059422,-9.726e-05,0.0,0 STARLINK-4021,1 53149U 22083T   23331.15935727 -.00009726  00000-0 -59422-3 0  9999,2 53149  53.2170 306.1885 0001619  90.9099 269.2079 15.08814439 76153,6917.959,95.439,540.944,538.704,0.0
53149.0,STARLINK-4021,PAYLOAD,2023-11-27 22:54:06,15.0883341,0.0001711,53.2168,302.6189,109.1839,250.9339,0.00069663,0.00010814,0.0,0 STARLINK-4021,1 53149U 22083T   23331.95424477  .00010814  00000-0  69663-3 0  9998,2 53149  53.2168 302.6189 0001711 109.1839 250.9339 15.08833410 75645,6917.901,95.438,540.949,538.582,0.0
53149.0,STARLINK-4021,PAYLOAD,2023-11-28 02:04:53,15.08842973,0.0001666,53.2171,302.0248,102.3418,257.7761,0.0012455,0.00019591,0.0,0 STARLINK-4021,1 53149U 22083T   23332.08672624  .00019591  00000-0  12455-2 0  9999,2 53149  53.2171 302.0248 0001666 102.3418 257.7761 15.08842973 76296,6917.871,95.437,540.889,538.584,0.0
53149.0,STARLINK-4021,PAYLOAD,2023-11-28 05:15:39,15.08856285,0.0001753,53.2167,301.4287,106.8275,253.291,0.0015586,0.00024615,0.0,0 STARLINK-4021,1 53149U 22083T   23332.21920398  .00024615  00000-0  15586-2 0  9999,2 53149  53.2167 301.4287 0001753 106.8275 253.2910 15.08856285 75684,6917.831,95.437,540.908,538.483,0.0
53149.0,STARLINK-4021,PAYLOAD,2023-11-29 03:31:02,15.0886713,0.0001893,53.2165,297.2621,110.9096,249.2099,0.00075911,0.00011823,0.0,0 STARLINK-4021,1 53149U 22083T   23333.14655408  .00011823  00000-0  75911-3 0  9995,2 53149  53.2165 297.2621 0001893 110.9096 249.2099 15.08867130 76458,6917.797,95.436,540.972,538.353,0.0
53149.0,STARLINK-4021,PAYLOAD,2023-11-29 05:06:25,15.08871529,0.0001787,53.2167,296.9688,99.5168,260.6026,0.00074733,0.00011636,0.0,0 STARLINK-4021,1 53149U 22083T   23333.21279334  .00011636  00000-0  74733-3 0  9996,2 53149  53.2167 296.9688 0001787  99.5168 260.6026 15.08871529 75838,6917.784,95.436,540.885,538.413,0.0
53149.0,STARLINK-4021,PAYLOAD,2023-11-30 03:21:49,15.08851175,0.0001778,53.2163,292.8018,103.4684,256.6506,0.0003597,5.443e-05,0.0,0 STARLINK-4021,1 53149U 22083T   23334.14015224  .00005443  00000-0  35970-3 0  9994,2 53149  53.2163 292.8018 0001778 103.4684 256.6506 15.08851175 76603,6917.846,95.437,540.941,538.481,0.0
53149.0,STARLINK-4021,PAYLOAD,2023-12-01 03:12:36,15.08850048,0.0002512,53.217,288.346,141.5405,218.5767,0.00056725,8.754e-05,0.0,0 STARLINK-4021,1 53149U 22083T   23335.13375192  .00008754  00000-0  56725-3 0  9996,2 53149  53.2170 288.3460 0002512 141.5405 218.5767 15.08850048 76753,6917.85,95.437,541.452,537.977,0.0
53149.0,STARLINK-4021,PAYLOAD,2023-12-01 06:23:22,15.0884743,0.0001676,53.217,287.7524,87.4817,272.6367,0.00058804,9.085e-05,0.0,0 STARLINK-4021,1 53149U 22083T   23335.26623423  .00009085  00000-0  58804-3 0  9991,2 53149  53.2170 287.7524 0001676  87.4817 272.6367 15.08847430 76772,6917.858,95.437,540.882,538.563,0.0
53149.0,STARLINK-4021,PAYLOAD,2023-12-01 19:06:32,15.08668848,0.0002388,53.217,285.3753,58.7627,301.3599,-0.0038925,-0.00061425,0.0,0 STARLINK-4021,1 53149U 22083T   23335.79621059 -.00061425  00000-0 -38925-2 0  9991,2 53149  53.2170 285.3753 0002388  58.7627 301.3599 15.08668848 76851,6918.404,95.448,541.921,538.616,0.0
